[{"OBJECT_NAME":"STARLINK-36263","OBJECT_ID":"2025-304L","EPOCH":"2026-03-09T07:05:18.023136","MEAN_MOTION":14.9831908,"ECCENTRICITY":0.00035419,"INCLINATION":70.0012,"RA_OF_ASC_NODE":175.5312,"ARG_OF_PERICENTER":267.9987,"MEAN_ANOMALY":92.0766,"EPHEMERIS_TYPE":0,"CLASSIFICATION_TYPE":"U","NORAD_CAT_ID":67202,"ELEMENT_SET_NO":999,"REV_AT_EPOCH":1382,"BSTAR":0.0019146601,"MEAN_MOTION_DOT":0.00022821,"MEAN_MOTION_DDOT":0},{"OBJECT_NAME":"IRIDIUM 33 DEB","OBJECT_ID":"1997-051CX","EPOCH":"2026-03-09T17:43:24.588192","MEAN_MOTION":14.98094004,"ECCENTRICITY":0.00015404,"INCLINATION":86.3865,"RA_OF_ASC_NODE":350.5598,"ARG_OF_PERICENTER":95.4765,"MEAN_ANOMALY":329.7207,"EPHEMERIS_TYPE":0,"CLASSIFICATION_TYPE":"U","NORAD_CAT_ID":34088,"ELEMENT_SET_NO":999,"REV_AT_EPOCH":90041,"BSTAR":0.0032183732,"MEAN_MOTION_DOT":0.00038264,"MEAN_MOTION_DDOT":0}]
